CTC1_L_00496014-29
1 53877U 23697RP  26037.47807870  .00000000  00000+0  00000-0 0  9995
2 53877  86.5000 156.0000 0000000   0.0000 297.3333 12.95442200    13
CTC1_L_00496014-30
1 53878U 24421AV  26037.47807870  .00000000  00000+0  00000-0 0  9992
2 53878  86.5000 156.0000 0000000   0.0000 307.3333 12.95442200    16
CTC1_L_00496014-31
1 53879U 24630WC  26037.47807870  .00000000  00000+0  00000-0 0  9995
2 53879  86.5000 156.0000 0000000   0.0000 317.3333 12.95442200    18
CTC1_L_00496014-32
1 53880U 25527MB  26037.47807870  .00000000  00000+0  00000-0 0  9993
2 53880  86.5000 156.0000 0000000   0.0000 327.3333 12.95442200    11
CTC1_L_00496014-33
1 53881U 25123XL  26037.47807870  .00000000  00000+0  00000-0 0  9996
2 53881  86.5000 156.0000 0000000   0.0000 337.3333 12.95442200    13
CTC1_L_00496014-34
1 53882U 25679NK  26037.47807870  .00000000  00000+0  00000-0 0  9993
2 53882  86.5000 156.0000 0000000   0.0000 347.3333 12.95442200    15
CTC1_L_00496014-35
1 53883U 26068YB  26037.47807870  .00000000  00000+0  00000-0 0  9997
2 53883  86.5000 156.0000 0000000   0.0000 357.3333 12.95442200    17
CTC1_L_00496014-36
1 53884U 24436FU  26037.47807870  .00000000  00000+0  00000-0 0  9995
2 53884  86.5000 156.0000 0000000   0.0000   7.3333 12.95442200    10
CTC1_L_00496015-01
1 53885U 22302MU  26037.47807870  .00000000  00000+0  00000-0 0  9996
2 53885  86.5000 168.0000 0000000   0.0000  18.6667 12.95442200    19
CTC1_L_00496015-02
1 53886U 25408PS  26037.47807870  .00000000  00000+0  00000-0 0  9997
2 53886  86.5000 168.0000 0000000   0.0000  28.6667 12.95442200    11
CTC1_L_00496015-03
1 53887U 26248ZF  26037.47807870  .00000000  00000+0  00000-0 0  9991
2 53887  86.5000 168.0000 0000000   0.0000  38.6667 12.95442200    13
CTC1_L_00496015-04
1 53888U 26049OI  26037.47807870  .00000000  00000+0  00000-0 0  9991
2 53888  86.5000 168.0000 0000000   0.0000  48.6667 12.95442200    15
CTC1_L_00496015-05
1 53889U 25653MC  26037.47807870  .00000000  00000+0  00000-0 0  9992
2 53889  86.5000 168.0000 0000000   0.0000  58.6667 12.95442200    17
CTC1_L_00496015-06
1 53890U 26302SN  26037.47807870  .00000000  00000+0  00000-0 0  9996
2 53890  86.5000 168.0000 0000000   0.0000  68.6667 12.95442200    10
CTC1_L_00496015-07
1 53891U 26430SB  26037.47807870  .00000000  00000+0  00000-0 0  9999
2 53891  86.5000 168.0000 0000000   0.0000  78.6667 12.95442200    12
CTC1_L_00496015-08
1 53892U 25466PA  26037.47807870  .00000000  00000+0  00000-0 0  9998
2 53892  86.5000 168.0000 0000000   0.0000  88.6667 12.95442200    14
CTC1_L_00496015-09
1 53893U 24644SQ  26037.47807870  .00000000  00000+0  00000-0 0  9996
2 53893  86.5000 168.0000 0000000   0.0000  98.6667 12.95442200    16
CTC1_L_00496015-10
1 53894U 23897CT  26037.47807870  .00000000  00000+0  00000-0 0  9996
2 53894  86.5000 168.0000 0000000   0.0000 108.6667 12.95442200    19
CTC1_L_00496015-11
1 53895U 26317GQ  26037.47807870  .00000000  00000+0  00000-0 0  9997
2 53895  86.5000 168.0000 0000000   0.0000 118.6667 12.95442200    11
CTC1_L_00496015-12
1 53896U 22941QY  26037.47807870  .00000000  00000+0  00000-0 0  9997
2 53896  86.5000 168.0000 0000000   0.0000 128.6667 12.95442200    13
CTC1_L_00496015-13
1 53897U 25541GW  26037.47807870  .00000000  00000+0  00000-0 0  9997
2 53897  86.5000 168.0000 0000000   0.0000 138.6667 12.95442200    15
CTC1_L_00496015-14
1 53898U 25159CA  26037.47807870  .00000000  00000+0  00000-0 0  9993
2 53898  86.5000 168.0000 0000000   0.0000 148.6667 12.95442200    17
CTC1_L_00496015-15
1 53899U 26272YH  26037.47807870  .00000000  00000+0  00000-0 0  9991
2 53899  86.5000 168.0000 0000000   0.0000 158.6667 12.95442200    19
CTC1_L_00496015-16
1 53900U 26527LU  26037.47807870  .00000000  00000+0  00000-0 0  9997
2 53900  86.5000 168.0000 0000000   0.0000 168.6667 12.95442200    13
CTC1_L_00496015-17
1 53901U 23385CJ  26037.47807870  .00000000  00000+0  00000-0 0  9997
2 53901  86.5000 168.0000 0000000   0.0000 178.6667 12.95442200    15
CTC1_L_00496015-18
1 53902U 26504EW  26037.47807870  .00000000  00000+0  00000-0 0  9994
2 53902  86.5000 168.0000 0000000   0.0000 188.6667 12.95442200    17
CTC1_L_00496015-19
1 53903U 22013KD  26037.47807870  .00000000  00000+0  00000-0 0  9996
2 53903  86.5000 168.0000 0000000   0.0000 198.6667 12.95442200    19
CTC1_L_00496015-20
1 53904U 22697CU  26037.47807870  .00000000  00000+0  00000-0 0  9995
2 53904  86.5000 168.0000 0000000   0.0000 208.6667 12.95442200    12
CTC1_L_00496015-21
1 53905U 26139HK  26037.47807870  .00000000  00000+0  00000-0 0  9991
2 53905  86.5000 168.0000 0000000   0.0000 218.6667 12.95442200    14
CTC1_L_00496015-22
1 53906U 23683TK  26037.47807870  .00000000  00000+0  00000-0 0  9993
2 53906  86.5000 168.0000 0000000   0.0000 228.6667 12.95442200    16
CTC1_L_00496015-23
1 53907U 24044MA  26037.47807870  .00000000  00000+0  00000-0 0  9996
2 53907  86.5000 168.0000 0000000   0.0000 238.6667 12.95442200    18
CTC1_L_00496015-24
1 53908U 22868ZZ  26037.47807870  .00000000  00000+0  00000-0 0  9999
2 53908  86.5000 168.0000 0000000   0.0000 248.6667 12.95442200    10
CTC1_L_00496015-25
1 53909U 26114IT  26037.47807870  .00000000  00000+0  00000-0 0  9998
2 53909  86.5000 168.0000 0000000   0.0000 258.6667 12.95442200    12
CTC1_L_00496015-26
1 53910U 23381D   26037.47807870  .00000000  00000+0  00000-0 0  9993
2 53910  86.5000 168.0000 0000000   0.0000 268.6667 12.95442200    15
CTC1_L_00496015-27
1 53911U 26012KN  26037.47807870  .00000000  00000+0  00000-0 0  9998
2 53911  86.5000 168.0000 0000000   0.0000 278.6667 12.95442200    17
CTC1_L_00496015-28
1 53912U 24332RR  26037.47807870  .00000000  00000+0  00000-0 0  9992
2 53912  86.5000 168.0000 0000000   0.0000 288.6667 12.95442200    19
CTC1_L_00496015-29
1 53913U 25892JT  26037.47807870  .00000000  00000+0  00000-0 0  9995
2 53913  86.5000 168.0000 0000000   0.0000 298.6667 12.95442200    11
CTC1_L_00496015-30
1 53914U 23274B   26037.47807870  .00000000  00000+0  00000-0 0  9998
2 53914  86.5000 168.0000 0000000   0.0000 308.6667 12.95442200    14
CTC1_L_00496015-31
1 53915U 22301XR  26037.47807870  .00000000  00000+0  00000-0 0  9999
2 53915  86.5000 168.0000 0000000   0.0000 318.6667 12.95442200    16
CTC1_L_00496015-32
1 53916U 24688YT  26037.47807870  .00000000  00000+0  00000-0 0  9990
2 53916  86.5000 168.0000 0000000   0.0000 328.6667 12.95442200    18
CTC1_L_00496015-33
1 53917U 23420TA  26037.47807870  .00000000  00000+0  00000-0 0  9994
2 53917  86.5000 168.0000 0000000   0.0000 338.6667 12.95442200    10
CTC1_L_00496015-34
1 53918U 25433AE  26037.47807870  .00000000  00000+0  00000-0 0  9991
2 53918  86.5000 168.0000 0000000   0.0000 348.6667 12.95442200    12
CTC1_L_00496015-35
1 53919U 23557NO  26037.47807870  .00000000  00000+0  00000-0 0  9997
2 53919  86.5000 168.0000 0000000   0.0000 358.6667 12.95442200    14
CTC1_L_00496015-36
1 53920U 25161U   26037.47807870  .00000000  00000+0  00000-0 0  9992
2 53920  86.5000 168.0000 0000000   0.0000   8.6667 12.95442200    18
CTC1_L_00496016-01
1 53921U 22258TV  26037.47807870  .00000000  00000+0  00000-0 0  9997
2 53921  86.5000 180.0000 0000000   0.0000  20.0000 12.95442200    12
CTC1_L_00496016-02
1 53922U 22081QY  26037.47807870  .00000000  00000+0  00000-0 0  9992
2 53922  86.5000 180.0000 0000000   0.0000  30.0000 12.95442200    14
CTC1_L_00496016-03
1 53923U 26042YW  26037.47807870  .00000000  00000+0  00000-0 0  9994
2 53923  86.5000 180.0000 0000000   0.0000  40.0000 12.95442200    16
CTC1_L_00496016-04
1 53924U 24385ME  26037.47807870  .00000000  00000+0  00000-0 0  9993
2 53924  86.5000 180.0000 0000000   0.0000  50.0000 12.95442200    18
CTC1_L_00496016-05
1 53925U 23588XL  26037.47807870  .00000000  00000+0  00000-0 0  9998
2 53925  86.5000 180.0000 0000000   0.0000  60.0000 12.95442200    10
CTC1_L_00496016-06
1 53926U 22504LO  26037.47807870  .00000000  00000+0  00000-0 0  9996
2 53926  86.5000 180.0000 0000000   0.0000  70.0000 12.95442200    12
CTC1_L_00496016-07
1 53927U 24244SU  26037.47807870  .00000000  00000+0  00000-0 0  9990
2 53927  86.5000 180.0000 0000000   0.0000  80.0000 12.95442200    14
CTC1_L_00496016-08
1 53928U 25147QP  26037.47807870  .00000000  00000+0  00000-0 0  9994
2 53928  86.5000 180.0000 0000000   0.0000  90.0000 12.95442200    16
CTC1_L_00496016-09
1 53929U 26178QZ  26037.47807870  .00000000  00000+0  00000-0 0  9990
2 53929  86.5000 180.0000 0000000   0.0000 100.0000 12.95442200    19
CTC1_L_00496016-10
1 53930U 22766KW  26037.47807870  .00000000  00000+0  00000-0 0  9991
2 53930  86.5000 180.0000 0000000   0.0000 110.0000 12.95442200    12
CTC1_L_00496016-11
1 53931U 22632BC  26037.47807870  .00000000  00000+0  00000-0 0  9994
2 53931  86.5000 180.0000 0000000   0.0000 120.0000 12.95442200    14
CTC1_L_00496016-12
1 53932U 24273DC  26037.47807870  .00000000  00000+0  00000-0 0  9998
2 53932  86.5000 180.0000 0000000   0.0000 130.0000 12.95442200    16
CTC1_L_00496016-13
1 53933U 26120WD  26037.47807870  .00000000  00000+0  00000-0 0  9992
2 53933  86.5000 180.0000 0000000   0.0000 140.0000 12.95442200    18
CTC1_L_00496016-14
1 53934U 26815QD  26037.47807870  .00000000  00000+0  00000-0 0  9994
2 53934  86.5000 180.0000 0000000   0.0000 150.0000 12.95442200    10
CTC1_L_00496016-15
1 53935U 24417ME  26037.47807870  .00000000  00000+0  00000-0 0  9991
2 53935  86.5000 180.0000 0000000   0.0000 160.0000 12.95442200    12
CTC1_L_00496016-16
1 53936U 24232YC  26037.47807870  .00000000  00000+0  00000-0 0  9997
2 53936  86.5000 180.0000 0000000   0.0000 170.0000 12.95442200    14
CTC1_L_00496016-17
1 53937U 25958HD  26037.47807870  .00000000  00000+0  00000-0 0  9994
2 53937  86.5000 180.0000 0000000   0.0000 180.0000 12.95442200    16
CTC1_L_00496016-18
1 53938U 24252GC  26037.47807870  .00000000  00000+0  00000-0 0  9991
2 53938  86.5000 180.0000 0000000   0.0000 190.0000 12.95442200    18
